[{"OBJECT_NAME":"LANDSAT 9","OBJECT_ID":"2021-088A","EPOCH":"2026-03-06T04:37:33.479904","MEAN_MOTION":14.57120928,"ECCENTRICITY":0.0001103,"INCLINATION":98.1945,"RA_OF_ASC_NODE":137.0354,"ARG_OF_PERICENTER":90.7131,"MEAN_ANOMALY":269.4194,"EPHEMERIS_TYPE":0,"CLASSIFICATION_TYPE":"U","NORAD_CAT_ID":49260,"ELEMENT_SET_NO":999,"REV_AT_EPOCH":23600,"BSTAR":0.0001155759,"MEAN_MOTION_DOT":4.76e-6,"MEAN_MOTION_DDOT":0},{"OBJECT_NAME":"CSG-2","OBJECT_ID":"2022-008A","EPOCH":"2026-03-06T19:21:33.402240","MEAN_MOTION":14.82157325,"ECCENTRICITY":0.0001394,"INCLINATION":97.8856,"RA_OF_ASC_NODE":250.8837,"ARG_OF_PERICENTER":80.1421,"MEAN_ANOMALY":279.9949,"EPHEMERIS_TYPE":0,"CLASSIFICATION_TYPE":"U","NORAD_CAT_ID":51444,"ELEMENT_SET_NO":999,"REV_AT_EPOCH":22142,"BSTAR":0.00016222,"MEAN_MOTION_DOT":1.239e-5,"MEAN_MOTION_DDOT":0},{"OBJECT_NAME":"GAOFEN-12 03","OBJECT_ID":"2022-069A","EPOCH":"2026-03-06T19:47:49.327008","MEAN_MOTION":14.79843379,"ECCENTRICITY":0.0002215,"INCLINATION":97.8414,"RA_OF_ASC_NODE":316.2142,"ARG_OF_PERICENTER":94.7808,"MEAN_ANOMALY":265.3656,"EPHEMERIS_TYPE":0,"CLASSIFICATION_TYPE":"U","NORAD_CAT_ID":52912,"ELEMENT_SET_NO":999,"REV_AT_EPOCH":19947,"BSTAR":0.00014101,"MEAN_MOTION_DOT":1.012e-5,"MEAN_MOTION_DDOT":0},{"OBJECT_NAME":"SWOT","OBJECT_ID":"2022-173A","EPOCH":"2026-03-06T19:24:31.227264","MEAN_MOTION":14.00169055,"ECCENTRICITY":5.29e-5,"INCLINATION":77.6119,"RA_OF_ASC_NODE":173.5091,"ARG_OF_PERICENTER":265.6984,"MEAN_ANOMALY":94.4107,"EPHEMERIS_TYPE":0,"CLASSIFICATION_TYPE":"U","NORAD_CAT_ID":54754,"ELEMENT_SET_NO":999,"REV_AT_EPOCH":16482,"BSTAR":5.8053e-5,"MEAN_MOTION_DOT":8.3e-7,"MEAN_MOTION_DDOT":0},{"OBJECT_NAME":"GAOFEN-12 04","OBJECT_ID":"2023-123A","EPOCH":"2026-03-06T20:29:25.035072","MEAN_MOTION":14.79994195,"ECCENTRICITY":0.0001679,"INCLINATION":97.9131,"RA_OF_ASC_NODE":345.3577,"ARG_OF_PERICENTER":76.6658,"MEAN_ANOMALY":283.4741,"EPHEMERIS_TYPE":0,"CLASSIFICATION_TYPE":"U","NORAD_CAT_ID":57654,"ELEMENT_SET_NO":999,"REV_AT_EPOCH":13749,"BSTAR":0.00025263,"MEAN_MOTION_DOT":1.859e-5,"MEAN_MOTION_DDOT":0},{"OBJECT_NAME":"PARS 1","OBJECT_ID":"2024-039Q","EPOCH":"2026-03-06T21:24:57.002688","MEAN_MOTION":15.43335848,"ECCENTRICITY":0.0011889,"INCLINATION":97.4755,"RA_OF_ASC_NODE":43.8166,"ARG_OF_PERICENTER":118.7385,"MEAN_ANOMALY":241.5059,"EPHEMERIS_TYPE":0,"CLASSIFICATION_TYPE":"U","NORAD_CAT_ID":59065,"ELEMENT_SET_NO":999,"REV_AT_EPOCH":11285,"BSTAR":0.00037669,"MEAN_MOTION_DOT":0.00016756,"MEAN_MOTION_DDOT":0},{"OBJECT_NAME":"RESURS-P 4","OBJECT_ID":"2024-061A","EPOCH":"2026-03-06T20:57:51.825600","MEAN_MOTION":15.32897137,"ECCENTRICITY":0.0002599,"INCLINATION":97.2656,"RA_OF_ASC_NODE":15.582,"ARG_OF_PERICENTER":62.2031,"MEAN_ANOMALY":297.9474,"EPHEMERIS_TYPE":0,"CLASSIFICATION_TYPE":"U","NORAD_CAT_ID":59371,"ELEMENT_SET_NO":999,"REV_AT_EPOCH":10809,"BSTAR":0.0001769,"MEAN_MOTION_DOT":5.544e-5,"MEAN_MOTION_DDOT":0},{"OBJECT_NAME":"LEGION 1","OBJECT_ID":"2024-081A","EPOCH":"2026-03-06T15:15:53.221824","MEAN_MOTION":15.17475984,"ECCENTRICITY":0.00053332,"INCLINATION":97.5075,"RA_OF_ASC_NODE":144.5602,"ARG_OF_PERICENTER":30.0239,"MEAN_ANOMALY":330.13,"EPHEMERIS_TYPE":0,"CLASSIFICATION_TYPE":"U","NORAD_CAT_ID":59625,"ELEMENT_SET_NO":999,"REV_AT_EPOCH":10199,"BSTAR":0.00032649166,"MEAN_MOTION_DOT":6.475e-5,"MEAN_MOTION_DDOT":0},{"OBJECT_NAME":"LEGION 2","OBJECT_ID":"2024-081B","EPOCH":"2026-03-06T19:19:10.761024","MEAN_MOTION":15.16530015,"ECCENTRICITY":0.0010435,"INCLINATION":97.5077,"RA_OF_ASC_NODE":144.809,"ARG_OF_PERICENTER":355.6597,"MEAN_ANOMALY":4.4543,"EPHEMERIS_TYPE":0,"CLASSIFICATION_TYPE":"U","NORAD_CAT_ID":59626,"ELEMENT_SET_NO":999,"REV_AT_EPOCH":10202,"BSTAR":0.00030897,"MEAN_MOTION_DOT":5.965e-5,"MEAN_MOTION_DDOT":0},{"OBJECT_NAME":"ALOS-4 (DAICHI-4)","OBJECT_ID":"2024-123A","EPOCH":"2026-03-06T19:55:13.568160","MEAN_MOTION":14.79471934,"ECCENTRICITY":0.0001452,"INCLINATION":97.9198,"RA_OF_ASC_NODE":164.471,"ARG_OF_PERICENTER":106.0331,"MEAN_ANOMALY":254.1041,"EPHEMERIS_TYPE":0,"CLASSIFICATION_TYPE":"U","NORAD_CAT_ID":60182,"ELEMENT_SET_NO":999,"REV_AT_EPOCH":9074,"BSTAR":0.00012069,"MEAN_MOTION_DOT":8.5e-6,"MEAN_MOTION_DDOT":0},{"OBJECT_NAME":"LEGION 3","OBJECT_ID":"2024-146A","EPOCH":"2026-03-06T18:40:45.487200","MEAN_MOTION":15.16111928,"ECCENTRICITY":0.0013742,"INCLINATION":45.0008,"RA_OF_ASC_NODE":219.5286,"ARG_OF_PERICENTER":304.4971,"MEAN_ANOMALY":55.4609,"EPHEMERIS_TYPE":0,"CLASSIFICATION_TYPE":"U","NORAD_CAT_ID":60452,"ELEMENT_SET_NO":999,"REV_AT_EPOCH":8648,"BSTAR":0.00037284,"MEAN_MOTION_DOT":7.063e-5,"MEAN_MOTION_DDOT":0},{"OBJECT_NAME":"LEGION 4","OBJECT_ID":"2024-146B","EPOCH":"2026-03-06T20:13:07.142592","MEAN_MOTION":15.1616735,"ECCENTRICITY":0.0009383,"INCLINATION":45.003,"RA_OF_ASC_NODE":311.0356,"ARG_OF_PERICENTER":86.6266,"MEAN_ANOMALY":273.5686,"EPHEMERIS_TYPE":0,"CLASSIFICATION_TYPE":"U","NORAD_CAT_ID":60453,"ELEMENT_SET_NO":999,"REV_AT_EPOCH":8534,"BSTAR":0.00032208,"MEAN_MOTION_DOT":6.066e-5,"MEAN_MOTION_DDOT":0},{"OBJECT_NAME":"SENTINEL-2C","OBJECT_ID":"2024-157A","EPOCH":"2026-03-06T03:58:24.426336","MEAN_MOTION":14.30812581,"ECCENTRICITY":7.333e-5,"INCLINATION":98.5682,"RA_OF_ASC_NODE":141.4257,"ARG_OF_PERICENTER":97.6115,"MEAN_ANOMALY":262.5151,"EPHEMERIS_TYPE":0,"CLASSIFICATION_TYPE":"U","NORAD_CAT_ID":60989,"ELEMENT_SET_NO":999,"REV_AT_EPOCH":7825,"BSTAR":7.7165141e-5,"MEAN_MOTION_DOT":1.59e-6,"MEAN_MOTION_DDOT":0},{"OBJECT_NAME":"IONOSFERA-M 1","OBJECT_ID":"2024-199A","EPOCH":"2026-03-06T19:09:55.229760","MEAN_MOTION":14.22734657,"ECCENTRICITY":0.0002105,"INCLINATION":98.7331,"RA_OF_ASC_NODE":299.9682,"ARG_OF_PERICENTER":80.0643,"MEAN_ANOMALY":280.0773,"EPHEMERIS_TYPE":0,"CLASSIFICATION_TYPE":"U","NORAD_CAT_ID":61735,"ELEMENT_SET_NO":999,"REV_AT_EPOCH":11314,"BSTAR":5.4876e-5,"MEAN_MOTION_DOT":7.9e-7,"MEAN_MOTION_DDOT":0},{"OBJECT_NAME":"IONOSFERA-M 2","OBJECT_ID":"2024-199B","EPOCH":"2026-03-06T19:59:36.461760","MEAN_MOTION":14.22737152,"ECCENTRICITY":2.26e-5,"INCLINATION":98.7329,"RA_OF_ASC_NODE":299.914,"ARG_OF_PERICENTER":98.1935,"MEAN_ANOMALY":261.9269,"EPHEMERIS_TYPE":0,"CLASSIFICATION_TYPE":"U","NORAD_CAT_ID":61736,"ELEMENT_SET_NO":999,"REV_AT_EPOCH":11627,"BSTAR":5.8235e-5,"MEAN_MOTION_DOT":8.6e-7,"MEAN_MOTION_DDOT":0},{"OBJECT_NAME":"BIOMASS","OBJECT_ID":"2025-090A","EPOCH":"2026-03-06T11:37:47.552160","MEAN_MOTION":14.6753287,"ECCENTRICITY":0.00012047,"INCLINATION":98.0747,"RA_OF_ASC_NODE":254.2782,"ARG_OF_PERICENTER":98.17,"MEAN_ANOMALY":261.9642,"EPHEMERIS_TYPE":0,"CLASSIFICATION_TYPE":"U","NORAD_CAT_ID":63772,"ELEMENT_SET_NO":999,"REV_AT_EPOCH":4562,"BSTAR":8.5276813e-5,"MEAN_MOTION_DOT":4.36e-6,"MEAN_MOTION_DDOT":0},{"OBJECT_NAME":"GOSAT-GW (IBUKI GW)","OBJECT_ID":"2025-141A","EPOCH":"2026-03-06T00:45:39.164256","MEAN_MOTION":14.67568283,"ECCENTRICITY":0.00014327,"INCLINATION":98.0502,"RA_OF_ASC_NODE":4.0681,"ARG_OF_PERICENTER":83.7124,"MEAN_ANOMALY":276.4243,"EPHEMERIS_TYPE":0,"CLASSIFICATION_TYPE":"U","NORAD_CAT_ID":64694,"ELEMENT_SET_NO":999,"REV_AT_EPOCH":3671,"BSTAR":0.00022341843,"MEAN_MOTION_DOT":1.22e-5,"MEAN_MOTION_DDOT":0}]
