LANDSAT 9               
1 49260U 21088A   26065.19274861  .00000476  00000+0  11558-3 0  9996
2 49260  98.1945 137.0354 0001103  90.7131 269.4194 14.57120928236003
CSG-2                   
1 51444U 22008A   26065.80663660  .00001239  00000+0  16222-3 0  9994
2 51444  97.8856 250.8837 0001394  80.1421 279.9949 14.82157325221427
GAOFEN-12 03            
1 52912U 22069A   26065.82487647  .00001012  00000+0  14101-3 0  9996
2 52912  97.8414 316.2142 0002215  94.7808 265.3656 14.79843379199477
SWOT                    
1 54754U 22173A   26065.80869476  .00000083  00000+0  58053-4 0  9992
2 54754  77.6119 173.5091 0000529 265.6984  94.4107 14.00169055164827
GAOFEN-12 04            
1 57654U 23123A   26065.85376198  .00001859  00000+0  25263-3 0  9997
2 57654  97.9131 345.3577 0001679  76.6658 283.4741 14.79994195137495
PARS 1                  
1 59065U 24039Q   26065.89232642  .00016756  00000+0  37669-3 0  9996
2 59065  97.4755  43.8166 0011889 118.7385 241.5059 15.43335848112859
RESURS-P 4              
1 59371U 24061A   26065.87351650  .00005544  00000+0  17690-3 0  9995
2 59371  97.2656  15.5820 0002599  62.2031 297.9474 15.32897137108098
LEGION 1                
1 59625U 24081A   26065.63603266  .00006475  00000+0  32649-3 0  9991
2 59625  97.5075 144.5602 0005333  30.0239 330.1300 15.17475984101996
LEGION 2                
1 59626U 24081B   26065.80498566  .00005965  00000+0  30897-3 0  9992
2 59626  97.5077 144.8090 0010435 355.6597   4.4543 15.16530015102026
ALOS-4 (DAICHI-4)       
1 60182U 24123A   26065.83001815  .00000850  00000+0  12069-3 0  9997
2 60182  97.9198 164.4710 0001452 106.0331 254.1041 14.79471934 90747
LEGION 3                
1 60452U 24146A   26065.77830425  .00007063  00000+0  37284-3 0  9991
2 60452  45.0008 219.5286 0013742 304.4971  55.4609 15.16111928 86484
LEGION 4                
1 60453U 24146B   26065.84244378  .00006066  00000+0  32208-3 0  9999
2 60453  45.0030 311.0356 0009383  86.6266 273.5686 15.16167350 85340
SENTINEL-2C             
1 60989U 24157A   26065.16556049  .00000159  00000+0  77165-4 0  9990
2 60989  98.5682 141.4257 0000733  97.6115 262.5151 14.30812581 78255
IONOSFERA-M 1           
1 61735U 24199A   26065.79855590  .00000079  00000+0  54876-4 0  9993
2 61735  98.7331 299.9682 0002105  80.0643 280.0773 14.22734657113147
IONOSFERA-M 2           
1 61736U 24199B   26065.83306090  .00000086  00000+0  58235-4 0  9996
2 61736  98.7329 299.9140 0000226  98.1935 261.9269 14.22737152116278
BIOMASS                 
1 63772U 25090A   26065.48457815  .00000436  00000+0  85277-4 0  9997
2 63772  98.0747 254.2782 0001204  98.1700 261.9642 14.67532870 45624
GOSAT-GW (IBUKI GW)     
1 64694U 25141A   26065.03170329  .00001220  00000+0  22342-3 0  9996
2 64694  98.0502   4.0681 0001432  83.7124 276.4243 14.67568283 36714
